GSAT0222 (PRN E33)      
1 43565U 18060B   22342.90361269 -.00000087  00000+0  00000+0 0  9991
2 43565  57.2296  16.4698 0004864 275.9650  84.0409  1.70476149 27289
GSAT0219 (PRN E36)      
1 43566U 18060C   22343.71073573 -.00000085  00000+0  00000+0 0  9998
2 43566  57.2304  16.4501 0004526 275.5474  84.4615  1.70476146 27277
GSAT0220 (PRN E13)      
1 43567U 18060D   22345.10415557 -.00000081  00000+0  00000+0 0  9992
2 43567  57.2306  16.4128 0004106 273.9997  86.0121  1.70476114 27276
BEIDOU-3 M9 (C23)       
1 43581U 18062A   22345.52516242  .00000032  00000+0  00000+0 0  9994
2 43581  54.2292 226.0280 0003310 309.5866 233.9379  1.86231936 29726
BEIDOU-3 M10 (C24)      
1 43582U 18062B   22344.40448170  .00000038  00000+0  00000+0 0  9991
2 43582  54.2288 226.0553 0006573  16.6088 227.5268  1.86231553 29700
BEIDOU-3 M11 (C25)      
1 43602U 18067A   22344.81317498  .00000037  00000+0  00000+0 0  9991
2 43602  54.3136 224.6725 0007867  14.6324 184.4956  1.86231515 29207
BEIDOU-3 M12 (C26)      
1 43603U 18067B   22344.92251819  .00000037  00000+0  00000+0 0  9998
2 43603  54.3114 224.6346 0004816   8.6912 174.0874  1.86231454 29228
BEIDOU-3 M13 (C32)      
1 43622U 18072A   22344.61699000 -.00000010  00000+0  00000+0 0  9991
2 43622  55.5886 105.4397 0004501 276.8217  89.8937  1.86231412 28730
BEIDOU-3 M14 (C33)      
1 43623U 18072B   22344.60287378 -.00000010  00000+0  00000+0 0  9992
2 43623  55.5910 105.4325 0002069 315.9379 131.5507  1.86231371 28733
BEIDOU-3 M15 (C34)      
1 43647U 18078A   22344.19974380 -.00000093  00000+0  10000-3 0  9990
2 43647  55.0535 344.5622 0006255 351.9279  81.1144  1.86232628 28231
BEIDOU-3 M16 (C35)      
1 43648U 18078B   22344.23191736 -.00000092  00000+0  00000+0 0  9996
2 43648  55.0489 344.5670 0003794 354.7531   7.2974  1.86232113 28251
BEIDOU-3 G1 (C59)       
1 43683U 18085A   22345.59563278 -.00000261  00000+0  00000+0 0  9995
2 43683   1.0097 150.3069 0003487 177.2229 107.2362  1.00275469 15189
COSMOS 2529 (757)       
1 43687U 18086A   22344.59285774  .00000034  00000+0  00000+0 0  9998
2 43687  64.3389 236.1432 0009039 270.1983 276.0172  2.13102090 31912
BEIDOU-3 M17 (C36)      
1 43706U 18093A   22344.37909460  .00000038  00000+0  00000+0 0  9993
2 43706  54.3112 225.9650 0007855 288.9449  71.0664  1.86232105 27614
BEIDOU-3 M18 (C37)      
1 43707U 18093B   22344.86383405  .00000036  00000+0  00000+0 0  9991
2 43707  54.3126 225.9395 0007647 317.6903  98.7099  1.86232265 27615
GPS BIII-1  (PRN 04)    
1 43873U 18109A   22343.72472060  .00000036  00000+0  00000+0 0  9993
2 43873  55.1258 142.9751 0022232 187.6516 207.9617  2.00556976 29291
BEIDOU-3 IGSO-1 (C38)   
1 44204U 19023A   22344.58771767 -.00000222  00000+0  00000+0 0  9997
2 44204  56.8175  51.0916 0024253 194.7065 162.5281  1.00256467 13479
BEIDOU-2 G8             
1 44231U 19027A   22344.95146672 -.00000232  00000+0  00000+0 0  9994
2 44231   1.2886  80.1193 0006170 133.6390 352.9936  1.00271343 13194
COSMOS 2534 (758)       
1 44299U 19030A   22344.46276990  .00000035  00000+0  00000+0 0  9995
2 44299  64.4116 236.0488 0011804 291.0477 289.7698  2.13101841 27556
BEIDOU-3 IGSO-2 (C39)   
1 44337U 19035A   22344.43660317 -.00000059  00000+0  00000+0 0  9997
2 44337  55.1338 170.1602 0025927 188.2820 354.4205  1.00250078 12817
GPS BIII-2  (PRN 18)    
1 44506U 19056A   22345.54062149 -.00000087  00000+0  00000+0 0  9991
2 44506  55.7494  22.0152 0029809 185.8692 341.4295  2.00560079 24311
BEIDOU-3 M23 (C45)      
1 44542U 19061A   22344.31558863  .00000039  00000+0  00000+0 0  9990
2 44542  54.5379 226.1440 0008929 355.5960   4.4926  1.86231587 21867
BEIDOU-3 M24 (C46)      
1 44543U 19061B   22345.24131406  .00000034  00000+0  00000+0 0  9999
2 44543  54.5365 226.0816 0005851 345.3821 186.8902  1.86231868 21875
BEIDOU-3 IGSO-3         
1 44709U 19073A   22344.84744860 -.00000190  00000+0  10000-3 0  9994
2 44709  56.9821 294.5477 0026313 183.0987  24.7226  1.00255413 11563
BEIDOU-3 M21            
1 44793U 19078A   22343.59345743 -.00000095  00000+0  10000-3 0  9994
2 44793  54.9022 344.5844 0005738 358.3029 341.8679  1.86232167 20709
BEIDOU-3 M22            
1 44794U 19078B   22345.09632841 -.00000088  00000+0  00000+0 0  9997
2 44794  54.8744 344.5196 0003973 346.9319 192.8113  1.86232571 20733
COSMOS 2544 (759)       
1 44850U 19088A   22344.19841201  .00000017  00000+0  16595+1 0  9991
2 44850  64.9983 116.7932 0011150 249.4023 114.0446  2.13102168 23327
BEIDOU-3 M19            
1 44864U 19090A   22344.46455115 -.00000011  00000+0  00000+0 0  9992
2 44864  55.5237 105.6462 0015544 266.7461  43.7130  1.86231700 20301
BEIDOU-3 M20            
1 44865U 19090B   22344.50840072 -.00000010  00000+0  00000+0 0  9997
2 44865  55.5249 105.6766 0013291 281.7214 147.9746  1.86231661 20285
BEIDOU-3 G2             
1 45344U 20017A   22345.15383933 -.00000126  00000+0  00000+0 0  9999
2 45344   1.9953   1.4499 0002036 217.4347 356.4046  1.00272044 10396
COSMOS 2545 (760)       
1 45358U 20018A   22344.63799416 -.00000063  00000+0  00000+0 0  9994
2 45358  64.9001 357.2011 0011625 249.0756 300.8646  2.13102613 21283
BEIDOU-3 G3             
1 45807U 20040A   22345.01640466 -.00000337  00000+0  00000+0 0  9995
2 45807   1.0561 310.6539 0009405 341.5056 263.9503  1.00266540  9201
GPS BIII-3  (PRN 23)    
1 45854U 20041A   22343.42191227 -.00000056  00000+0  00000+0 0  9995
2 45854  55.6602  79.3693 0029087 182.3966 195.2238  2.00567945 18254
GALAXY 30 (WAAS/PRN 135)
1 46114U 20056C   22345.46213093  .00000053  00000+0  00000+0 0  9999
2 46114   0.0188 350.4976 0002377 271.0109 220.0274  1.00272835  8539
GPS BIII-4  (PRN 14)    
1 46826U 20078A   22344.74041288 -.00000010  00000+0  00000+0 0  9992
2 46826  54.4575 262.9397 0024835 190.1105  35.9843  2.00565197 15749
GPS BIII-5  (PRN 11)    
1 48859U 21054A   22345.24844111 -.00000088  00000+0  00000+0 0  9992
2 48859  55.2595  23.9400 0009155 214.0810 203.5487  2.00563632 10996
